CCSDS_OMM_VERS = 2.0
CREATION_DATE  = 
ORIGINATOR     = 

OBJECT_NAME    = HULIANWANG DIGUI 13A
OBJECT_ID      = 2025-258A
CENTER_NAME    = EARTH
REF_FRAME      = TEME
TIME_SYSTEM    = UTC
MEAN_ELEMENT_THEORY = SGP/SGP4

EPOCH          = 2025-12-05T21:34:54.424128
MEAN_MOTION    = 14.22483467
ECCENTRICITY   = .0013174
INCLINATION    = 50.0056
RA_OF_ASC_NODE = 290.7730
ARG_OF_PERICENTER = 333.7456
MEAN_ANOMALY   = 26.2788

EPHEMERIS_TYPE = 0
CLASSIFICATION_TYPE = U
NORAD_CAT_ID   = 66412
ELEMENT_SET_NO = 999
REV_AT_EPOCH   = 368
BSTAR          = .33228063E-3
MEAN_MOTION_DOT = .588E-5
MEAN_MOTION_DDOT = 0

CCSDS_OMM_VERS = 2.0
CREATION_DATE  = 
ORIGINATOR     = 

OBJECT_NAME    = HULIANWANG DIGUI 13B
OBJECT_ID      = 2025-258B
CENTER_NAME    = EARTH
REF_FRAME      = TEME
TIME_SYSTEM    = UTC
MEAN_ELEMENT_THEORY = SGP/SGP4

EPOCH          = 2025-12-06T11:16:22.288224
MEAN_MOTION    = 14.21453011
ECCENTRICITY   = .00109256
INCLINATION    = 50.0012
RA_OF_ASC_NODE = 288.4452
ARG_OF_PERICENTER = 335.6563
MEAN_ANOMALY   = 24.3832

EPHEMERIS_TYPE = 0
CLASSIFICATION_TYPE = U
NORAD_CAT_ID   = 66413
ELEMENT_SET_NO = 999
REV_AT_EPOCH   = 376
BSTAR          = .38060221E-3
MEAN_MOTION_DOT = .68E-5
MEAN_MOTION_DDOT = 0

CCSDS_OMM_VERS = 2.0
CREATION_DATE  = 
ORIGINATOR     = 

OBJECT_NAME    = HULIANWANG DIGUI 13C
OBJECT_ID      = 2025-258C
CENTER_NAME    = EARTH
REF_FRAME      = TEME
TIME_SYSTEM    = UTC
MEAN_ELEMENT_THEORY = SGP/SGP4

EPOCH          = 2025-12-05T09:53:35.287008
MEAN_MOTION    = 14.22441770
ECCENTRICITY   = .00137409
INCLINATION    = 50.0052
RA_OF_ASC_NODE = 292.8676
ARG_OF_PERICENTER = 331.0235
MEAN_ANOMALY   = 28.9914

EPHEMERIS_TYPE = 0
CLASSIFICATION_TYPE = U
NORAD_CAT_ID   = 66414
ELEMENT_SET_NO = 999
REV_AT_EPOCH   = 361
BSTAR          = .35499636E-3
MEAN_MOTION_DOT = .638E-5
MEAN_MOTION_DDOT = 0

CCSDS_OMM_VERS = 2.0
CREATION_DATE  = 
ORIGINATOR     = 

OBJECT_NAME    = HULIANWANG DIGUI 13D
OBJECT_ID      = 2025-258D
CENTER_NAME    = EARTH
REF_FRAME      = TEME
TIME_SYSTEM    = UTC
MEAN_ELEMENT_THEORY = SGP/SGP4

EPOCH          = 2025-12-06T05:58:33.476448
MEAN_MOTION    = 14.22277403
ECCENTRICITY   = .00117964
INCLINATION    = 50.0081
RA_OF_ASC_NODE = 289.2904
ARG_OF_PERICENTER = 338.5635
MEAN_ANOMALY   = 21.4782

EPHEMERIS_TYPE = 0
CLASSIFICATION_TYPE = U
NORAD_CAT_ID   = 66415
ELEMENT_SET_NO = 999
REV_AT_EPOCH   = 373
BSTAR          = .33182865E-3
MEAN_MOTION_DOT = .584E-5
MEAN_MOTION_DDOT = 0

CCSDS_OMM_VERS = 2.0
CREATION_DATE  = 
ORIGINATOR     = 

OBJECT_NAME    = HULIANWANG DIGUI 13E
OBJECT_ID      = 2025-258E
CENTER_NAME    = EARTH
REF_FRAME      = TEME
TIME_SYSTEM    = UTC
MEAN_ELEMENT_THEORY = SGP/SGP4

EPOCH          = 2025-12-05T21:39:19.515744
MEAN_MOTION    = 14.22215324
ECCENTRICITY   = .00111953
INCLINATION    = 50.0052
RA_OF_ASC_NODE = 290.7863
ARG_OF_PERICENTER = 340.1554
MEAN_ANOMALY   = 19.8921

EPHEMERIS_TYPE = 0
CLASSIFICATION_TYPE = U
NORAD_CAT_ID   = 66416
ELEMENT_SET_NO = 999
REV_AT_EPOCH   = 368
BSTAR          = .39075783E-3
MEAN_MOTION_DOT = .714E-5
MEAN_MOTION_DDOT = 0

CCSDS_OMM_VERS = 2.0
CREATION_DATE  = 
ORIGINATOR     = 

OBJECT_NAME    = HULIANWANG DIGUI 13F
OBJECT_ID      = 2025-258F
CENTER_NAME    = EARTH
REF_FRAME      = TEME
TIME_SYSTEM    = UTC
MEAN_ELEMENT_THEORY = SGP/SGP4

EPOCH          = 2025-12-06T14:29:09.906432
MEAN_MOTION    = 14.21933133
ECCENTRICITY   = .00102248
INCLINATION    = 50.0001
RA_OF_ASC_NODE = 287.8136
ARG_OF_PERICENTER = 341.4358
MEAN_ANOMALY   = 18.6180

EPHEMERIS_TYPE = 0
CLASSIFICATION_TYPE = U
NORAD_CAT_ID   = 66417
ELEMENT_SET_NO = 999
REV_AT_EPOCH   = 378
BSTAR          = .35322897E-3
MEAN_MOTION_DOT = .626E-5
MEAN_MOTION_DDOT = 0

CCSDS_OMM_VERS = 2.0
CREATION_DATE  = 
ORIGINATOR     = 

OBJECT_NAME    = HULIANWANG DIGUI 13G
OBJECT_ID      = 2025-258G
CENTER_NAME    = EARTH
REF_FRAME      = TEME
TIME_SYSTEM    = UTC
MEAN_ELEMENT_THEORY = SGP/SGP4

EPOCH          = 2025-12-05T21:30:39.941568
MEAN_MOTION    = 14.22784746
ECCENTRICITY   = .00116654
INCLINATION    = 50.0022
RA_OF_ASC_NODE = 290.7431
ARG_OF_PERICENTER = 336.1209
MEAN_ANOMALY   = 23.9161

EPHEMERIS_TYPE = 0
CLASSIFICATION_TYPE = U
NORAD_CAT_ID   = 66418
ELEMENT_SET_NO = 999
REV_AT_EPOCH   = 368
BSTAR          = .31844208E-3
MEAN_MOTION_DOT = .56E-5
MEAN_MOTION_DDOT = 0

CCSDS_OMM_VERS = 2.0
CREATION_DATE  = 
ORIGINATOR     = 

OBJECT_NAME    = HULIANWANG DIGUI 13H
OBJECT_ID      = 2025-258H
CENTER_NAME    = EARTH
REF_FRAME      = TEME
TIME_SYSTEM    = UTC
MEAN_ELEMENT_THEORY = SGP/SGP4

EPOCH          = 2025-12-05T14:43:51.252960
MEAN_MOTION    = 14.23328519
ECCENTRICITY   = .00120585
INCLINATION    = 50.0017
RA_OF_ASC_NODE = 291.9103
ARG_OF_PERICENTER = 334.7106
MEAN_ANOMALY   = 25.3215

EPHEMERIS_TYPE = 0
CLASSIFICATION_TYPE = U
NORAD_CAT_ID   = 66419
ELEMENT_SET_NO = 999
REV_AT_EPOCH   = 364
BSTAR          = .13377596E-3
MEAN_MOTION_DOT = .146E-5
MEAN_MOTION_DDOT = 0

CCSDS_OMM_VERS = 2.0
CREATION_DATE  = 
ORIGINATOR     = 

OBJECT_NAME    = HULIANWANG DIGUI 13J
OBJECT_ID      = 2025-258J
CENTER_NAME    = EARTH
REF_FRAME      = TEME
TIME_SYSTEM    = UTC
MEAN_ELEMENT_THEORY = SGP/SGP4

EPOCH          = 2025-12-05T23:07:39.042912
MEAN_MOTION    = 14.22956918
ECCENTRICITY   = .00133221
INCLINATION    = 50.0158
RA_OF_ASC_NODE = 290.4806
ARG_OF_PERICENTER = 343.9613
MEAN_ANOMALY   = 16.0876

EPHEMERIS_TYPE = 0
CLASSIFICATION_TYPE = U
NORAD_CAT_ID   = 66420
ELEMENT_SET_NO = 999
REV_AT_EPOCH   = 368
BSTAR          = .30678625E-3
MEAN_MOTION_DOT = .536E-5
MEAN_MOTION_DDOT = 0

CCSDS_OMM_VERS = 2.0
CREATION_DATE  = 
ORIGINATOR     = 

OBJECT_NAME    = CZ-12 R/B
OBJECT_ID      = 2025-258K
CENTER_NAME    = EARTH
REF_FRAME      = TEME
TIME_SYSTEM    = UTC
MEAN_ELEMENT_THEORY = SGP/SGP4

EPOCH          = 2025-12-06T14:57:02.602656
MEAN_MOTION    = 14.42319758
ECCENTRICITY   = .0064526
INCLINATION    = 49.9961
RA_OF_ASC_NODE = 284.4905
ARG_OF_PERICENTER = 227.4206
MEAN_ANOMALY   = 132.1259

EPHEMERIS_TYPE = 0
CLASSIFICATION_TYPE = U
NORAD_CAT_ID   = 66421
ELEMENT_SET_NO = 999
REV_AT_EPOCH   = 383
BSTAR          = .11927224E-3
MEAN_MOTION_DOT = .236E-5
MEAN_MOTION_DDOT = 0

CCSDS_OMM_VERS = 2.0
CREATION_DATE  = 
ORIGINATOR     = 

OBJECT_NAME    = STARLINK-35617
OBJECT_ID      = 2025-259A
CENTER_NAME    = EARTH
REF_FRAME      = TEME
TIME_SYSTEM    = UTC
MEAN_ELEMENT_THEORY = SGP/SGP4

EPOCH          = 2025-12-06T14:00:01.999872
MEAN_MOTION    = 15.40737163
ECCENTRICITY   = .00010662
INCLINATION    = 43.0006
RA_OF_ASC_NODE = 83.5853
ARG_OF_PERICENTER = 297.2915
MEAN_ANOMALY   = 19.4746

EPHEMERIS_TYPE = 0
CLASSIFICATION_TYPE = U
NORAD_CAT_ID   = 66422
ELEMENT_SET_NO = 999
REV_AT_EPOCH   = 529
BSTAR          = -.32340225E-2
MEAN_MOTION_DOT = -.133226E-2
MEAN_MOTION_DDOT = 0

CCSDS_OMM_VERS = 2.0
CREATION_DATE  = 
ORIGINATOR     = 

OBJECT_NAME    = STARLINK-35618
OBJECT_ID      = 2025-259B
CENTER_NAME    = EARTH
REF_FRAME      = TEME
TIME_SYSTEM    = UTC
MEAN_ELEMENT_THEORY = SGP/SGP4

EPOCH          = 2025-12-06T14:00:01.999872
MEAN_MOTION    = 15.40733112
ECCENTRICITY   = .00011875
INCLINATION    = 43.0005
RA_OF_ASC_NODE = 83.5548
ARG_OF_PERICENTER = 267.4855
MEAN_ANOMALY   = 61.7047

EPHEMERIS_TYPE = 0
CLASSIFICATION_TYPE = U
NORAD_CAT_ID   = 66423
ELEMENT_SET_NO = 999
REV_AT_EPOCH   = 529
BSTAR          = -.23969645E-2
MEAN_MOTION_DOT = -.99246E-3
MEAN_MOTION_DDOT = 0

